{
  "type": "FeatureCollection",
  "features": [
    {
      "type": "Feature",
      "properties": {
        "id": "p1",
        "name": "BHT-Campus Wedding, Gebäudeecke",
        "environment": "urban_canyon",
        "source": "Korrigiert aus zwei konvergierenden Messsessions (18.09., n=214+654, Median-Abstand 4,7m zueinander), da urspruenglicher Kartenpunkt nur grob gesetzt war und ca. 155m daneben lag"
      },
      "geometry": { "type": "Point", "coordinates": [13.35393863137414, 52.54498630747075] }
    },
    {
      "type": "Feature",
      "properties": {
        "id": "p2",
        "name": "Rummelsburger Ufer, Gebäudeecke am Wasser",
        "environment": "open_sky",
        "source": "ALKIS Berlin Gebäude (WFS), Feature gebaeude.DEBE11YYI0000If5"
      },
      "geometry": { "type": "Point", "coordinates": [13.476838, 52.4999012] }
    },
    {
      "type": "Feature",
      "properties": {
        "id": "p3",
        "name": "Innenhof \"Grüne Stadt\", Kniprodestraße",
        "environment": "shadowed",
        "source": "Korrigiert aus zwei konvergierenden Messsessions (13.09./unbekannt, n=9+33, Streuung <1m), da urspruenglicher Kartenpunkt nur grob gesetzt war und ca. 66m daneben lag"
      },
      "geometry": { "type": "Point", "coordinates": [13.438668826361244, 52.53126064659031] }
    }
  ]
}
